NORAD_CAT_ID,OBJECT_NAME,OBJECT_TYPE,EPOCH,MEAN_MOTION,ECCENTRICITY,INCLINATION,RA_OF_ASC_NODE,ARG_OF_PERICENTER,MEAN_ANOMALY,BSTAR,MEAN_MOTION_DOT,MEAN_MOTION_DDOT,TLE_LINE0,TLE_LINE1,TLE_LINE2,SEMIMAJOR_AXIS,PERIOD,APOGEE,PERIGEE,DECAYED
53247.0,STARLINK-4061,PAYLOAD,2024-07-06 09:19:49,15.08843536,6.91e-05,53.2146,63.5428,92.0836,268.0236,0.00025472,3.769e-05,0.0,0 STARLINK-4061,1 53247U 22086F   24188.38876595  .00003769  00000-0  25472-3 0  9991,2 53247  53.2146  63.5428 0000691  92.0836 268.0236 15.08843536108522,6917.87,95.437,540.213,539.257,0.0
53247.0,STARLINK-4061,PAYLOAD,2024-07-06 20:27:31,15.08838683,0.0001129,53.2166,61.4603,109.8754,250.236,7.6998e-05,9.38e-06,0.0,0 STARLINK-4061,1 53247U 22086F   24188.85244928  .00000938  00000-0  76998-4 0  9997,2 53247  53.2166  61.4603 0001129 109.8754 250.2360 15.08838683108594,6917.884,95.438,540.53,538.968,0.0
53247.0,STARLINK-4061,PAYLOAD,2024-07-06 22:02:55,15.088308,8.71e-05,53.2158,61.1638,89.9189,270.1903,-0.00010018,-1.881e-05,0.0,0 STARLINK-4061,1 53247U 22086F   24188.91869324 -.00001881  00000-0 -10018-3 0  9997,2 53247  53.2158  61.1638 0000871  89.9189 270.1903 15.08830800109108,6917.909,95.438,540.376,539.171,0.0
53247.0,STARLINK-4061,PAYLOAD,2024-07-07 01:13:41,15.08838561,0.0001193,53.2166,60.5674,100.4773,259.6353,1.5582e-05,-4e-07,0.0,0 STARLINK-4061,1 53247U 22086F   24189.05117029 -.00000040  00000-0  15582-4 0  9998,2 53247  53.2166  60.5674 0001193 100.4773 259.6353 15.08838561109121,6917.885,95.438,540.575,538.924,0.0
53247.0,STARLINK-4061,PAYLOAD,2024-07-08 01:04:28,15.08844814,0.0001115,53.2183,56.1047,107.5453,252.5661,0.00010459,1.377e-05,0.0,0 STARLINK-4061,1 53247U 22086F   24190.04476876  .00001377  00000-0  10459-3 0  9997,2 53247  53.2183  56.1047 0001115 107.5453 252.5661 15.08844814108774,6917.866,95.437,540.502,538.959,0.0
53247.0,STARLINK-4061,PAYLOAD,2024-07-08 21:44:28,15.08844656,0.0001021,53.2174,52.2389,90.1273,269.9836,0.00020984,3.054e-05,0.0,0 STARLINK-4061,1 53247U 22086F   24190.90589017  .00003054  00000-0  20984-3 0  9992,2 53247  53.2174  52.2389 0001021  90.1273 269.9836 15.08844656109404,6917.866,95.437,540.437,539.025,0.0
53247.0,STARLINK-4061,PAYLOAD,2024-07-09 07:16:47,15.08840655,0.0001027,53.2174,50.4554,86.9208,273.1901,0.00027288,4.058e-05,0.0,0 STARLINK-4061,1 53247U 22086F   24191.30333206  .00004058  00000-0  27288-3 0  9993,2 53247  53.2174  50.4554 0001027  86.9208 273.1901 15.08840655108960,6917.878,95.438,540.454,539.033,0.0
53247.0,STARLINK-4061,PAYLOAD,2024-07-09 19:59:53,15.0883277,0.0001254,53.2181,48.0776,93.7372,266.3764,-0.00010279,-1.923e-05,0.0,0 STARLINK-4061,1 53247U 22086F   24191.83325647 -.00001923  00000-0 -10279-3 0  9993,2 53247  53.2181  48.0776 0001254  93.7372 266.3764 15.08832770109047,6917.902,95.438,540.635,538.9,0.0
53247.0,STARLINK-4061,PAYLOAD,2024-07-09 21:35:16,15.08835567,0.0001216,53.219,47.7816,100.4784,259.6345,-1.4545e-05,-5.19e-06,0.0,0 STARLINK-4061,1 53247U 22086F   24191.89949910 -.00000519  00000-0 -14545-4 0  9995,2 53247  53.2190  47.7816 0001216 100.4784 259.6345 15.08835567109552,6917.894,95.438,540.6,538.918,0.0
53247.0,STARLINK-4061,PAYLOAD,2024-07-10 13:29:08,15.08833789,0.0001066,53.2183,44.8061,93.2011,266.9103,5.216e-05,5.42e-06,0.0,0 STARLINK-4061,1 53247U 22086F   24192.56190075  .00000542  00000-0  52160-4 0  9999,2 53247  53.2183  44.8061 0001066  93.2011 266.9103 15.08833789109657,6917.899,95.438,540.502,539.027,0.0
53247.0,STARLINK-4061,PAYLOAD,2024-07-10 21:26:03,15.08842182,0.0001056,53.2183,43.3212,98.1234,261.9878,3.9059e-05,3.34e-06,0.0,0 STARLINK-4061,1 53247U 22086F   24192.89309614  .00000334  00000-0  39059-4 0  9997,2 53247  53.2183  43.3212 0001056  98.1234 261.9878 15.08842182109706,6917.874,95.437,540.469,539.008,0.0
53247.0,STARLINK-4061,PAYLOAD,2024-07-11 13:19:54,15.08841856,0.000112,53.2177,40.3467,102.5791,257.5327,9.3879e-05,1.207e-05,0.0,0 STARLINK-4061,1 53247U 22086F   24193.55549532  .00001207  00000-0  93879-4 0  9996,2 53247  53.2177  40.3467 0001120 102.5791 257.5327 15.08841856109806,6917.875,95.437,540.515,538.965,0.0
53247.0,STARLINK-4061,PAYLOAD,2024-07-12 13:10:41,15.08844924,0.0001749,53.2149,35.887,83.0326,277.0865,0.00017053,2.427e-05,0.0,0 STARLINK-4061,1 53247U 22086F   24194.54909545  .00002427  00000-0  17053-3 0  9994,2 53247  53.2149  35.8870 0001749  83.0326 277.0865 15.08844924109450,6917.865,95.437,540.94,538.52,0.0
53247.0,STARLINK-4061,PAYLOAD,2024-07-12 21:07:37,15.08843871,0.0001068,53.2166,34.401,89.4635,270.648,0.00011541,1.55e-05,0.0,0 STARLINK-4061,1 53247U 22086F   24194.88029438  .00001550  00000-0  11541-3 0  9997,2 53247  53.2166  34.4010 0001068  89.4635 270.6480 15.08843871110002,6917.869,95.437,540.472,538.995,0.0
53247.0,STARLINK-4061,PAYLOAD,2024-07-13 13:01:28,15.08842237,0.000104,53.2174,31.4276,88.1738,271.9373,3.9031e-05,3.33e-06,0.0,0 STARLINK-4061,1 53247U 22086F   24195.54269584  .00000333  00000-0  39031-4 0  9992,2 53247  53.2174  31.4276 0001040  88.1738 271.9373 15.08842237109606,6917.874,95.437,540.458,539.019,0.0
53247.0,STARLINK-4061,PAYLOAD,2024-07-13 22:33:47,15.088524,9.11e-05,53.2172,29.6425,90.6267,269.483,0.00017968,2.574e-05,0.0,0 STARLINK-4061,1 53247U 22086F   24195.94013006  .00002574  00000-0  17968-3 0  9995,2 53247  53.2172  29.6425 0000911  90.6267 269.4830 15.08852400110166,6917.842,95.437,540.338,539.077,0.0
53247.0,STARLINK-4061,PAYLOAD,2024-07-14 06:30:43,15.08833108,7.86e-05,53.2182,28.1517,104.9225,255.1854,0.00030793,4.615e-05,0.0,0 STARLINK-4061,1 53247U 22086F   24196.27133845  .00004615  00000-0  30793-3 0  9995,2 53247  53.2182  28.1517 0000786 104.9225 255.1854 15.08833108109717,6917.901,95.438,540.31,539.223,0.0
53247.0,STARLINK-4061,PAYLOAD,2024-07-14 19:13:48,15.08839169,8.63e-05,53.2181,25.7734,97.9603,262.1487,0.0002574,3.811e-05,0.0,0 STARLINK-4061,1 53247U 22086F   24196.80125721  .00003811  00000-0  25740-3 0  9991,2 53247  53.2181  25.7734 0000863  97.9603 262.1487 15.08839169110295,6917.883,95.438,540.345,539.151,0.0
53247.0,STARLINK-4061,PAYLOAD,2024-07-15 19:04:35,15.08839686,0.0001056,53.2181,21.3155,87.3498,272.7615,0.00014752,2.061e-05,0.0,0 STARLINK-4061,1 53247U 22086F   24197.79485856  .00002061  00000-0  14752-3 0  9995,2 53247  53.2181  21.3155 0001056  87.3498 272.7615 15.08839686109948,6917.881,95.438,540.477,539.016,0.0
53247.0,STARLINK-4061,PAYLOAD,2024-07-15 22:15:21,15.08844325,0.0001147,53.2178,20.7198,86.2218,273.8906,7.8293e-05,9.59e-06,0.0,0 STARLINK-4061,1 53247U 22086F   24197.92733548  .00000959  00000-0  78293-4 0  9999,2 53247  53.2178  20.7198 0001147  86.2218 273.8906 15.08844325110463,6917.867,95.437,540.526,538.939,0.0
53247.0,STARLINK-4061,PAYLOAD,2024-07-16 18:55:22,15.0884849,0.000127,53.2187,16.8528,83.808,276.3057,0.00017442,2.49e-05,0.0,0 STARLINK-4061,1 53247U 22086F   24198.78845334  .00002490  00000-0  17442-3 0  9991,2 53247  53.2187  16.8528 0001270  83.8080 276.3057 15.08848490110599,6917.854,95.437,540.598,538.841,0.0
53247.0,STARLINK-4061,PAYLOAD,2024-07-17 04:27:41,15.08845599,0.0001577,53.218,15.0686,61.4834,298.6317,0.00014296,1.988e-05,0.0,0 STARLINK-4061,1 53247U 22086F   24199.18589301  .00001988  00000-0  14296-3 0  9990,2 53247  53.2180  15.0686 0001577  61.4834 298.6317 15.08845599110152,6917.863,95.437,540.819,538.637,0.0
53247.0,STARLINK-4061,PAYLOAD,2024-07-17 10:49:14,15.08841337,0.0001498,53.2191,13.8885,90.6766,269.4398,4.7855e-05,4.74e-06,0.0,0 STARLINK-4061,1 53247U 22086F   24199.45085766  .00000474  00000-0  47855-4 0  9993,2 53247  53.2191  13.8885 0001498  90.6766 269.4398 15.08841337110196,6917.876,95.437,540.778,538.705,0.0
53247.0,STARLINK-4061,PAYLOAD,2024-07-17 17:10:47,15.0882945,0.0001184,53.2187,12.6954,84.1165,275.9962,-9.9974e-05,-1.878e-05,0.0,0 STARLINK-4061,1 53247U 22086F   24199.71582476 -.00001878  00000-0 -99974-4 0  9992,2 53247  53.2187  12.6954 0001184  84.1165 275.9962 15.08829450110234,6917.913,95.438,540.597,538.959,0.0
53247.0,STARLINK-4061,PAYLOAD,2024-07-18 10:40:01,15.08833742,0.0001167,53.2189,9.4242,83.7957,276.3168,4.9428e-05,4.99e-06,0.0,0 STARLINK-4061,1 53247U 22086F   24200.44446639  .00000499  00000-0  49428-4 0  9990,2 53247  53.2189   9.4242 0001167  83.7957 276.3168 15.08833742110844,6917.9,95.438,540.572,538.957,0.0
53247.0,STARLINK-4061,PAYLOAD,2024-07-18 17:01:34,15.08841263,0.0001156,53.2186,8.235,87.1463,272.9662,8.8183e-06,-1.47e-06,0.0,0 STARLINK-4061,1 53247U 22086F   24200.70942412 -.00000147  00000-0  88183-5 0  9992,2 53247  53.2186   8.2350 0001156  87.1463 272.9662 15.08841263110383,6917.877,95.437,540.541,538.942,0.0
53247.0,STARLINK-4061,PAYLOAD,2024-07-19 18:27:44,15.08854489,0.0001158,53.2177,3.4769,73.5813,286.5307,0.00049093,7.537e-05,0.0,0 STARLINK-4061,1 53247U 22086F   24201.76926222  .00007537  00000-0  49093-3 0  9994,2 53247  53.2177   3.4769 0001158  73.5813 286.5307 15.08854489110543,6917.836,95.437,540.502,538.9,0.0
53247.0,STARLINK-4061,PAYLOAD,2024-07-20 04:00:03,15.08850098,0.0001061,53.218,1.6931,82.7532,277.3581,0.00026849,3.989e-05,0.0,0 STARLINK-4061,1 53247U 22086F   24202.16670192  .00003989  00000-0  26849-3 0  9992,2 53247  53.2180   1.6931 0001061  82.7532 277.3581 15.08850098110602,6917.85,95.437,540.449,538.981,0.0
53247.0,STARLINK-4061,PAYLOAD,2024-07-20 10:21:35,15.08844142,0.0001038,53.2158,0.5045,86.8429,273.2682,0.0001095,1.456e-05,0.0,0 STARLINK-4061,1 53247U 22086F   24202.43166176  .00001456  00000-0  10950-3 0  9997,2 53247  53.2158   0.5045 0001038  86.8429 273.2682 15.08844142111145,6917.868,95.437,540.451,539.015,0.0
53247.0,STARLINK-4061,PAYLOAD,2024-07-20 16:43:08,15.08843516,8.14e-05,53.2168,359.3141,83.9893,276.1192,8.7177e-05,1.1e-05,0.0,0 STARLINK-4061,1 53247U 22086F   24202.69662257  .00001100  00000-0  87177-4 0  9998,2 53247  53.2168 359.3141 0000814  83.9893 276.1192 15.08843516110682,6917.87,95.437,540.298,539.172,0.0
